[{"OBJECT_NAME":"GEOSCAN 4 (RS92S4)","OBJECT_ID":"2025-155S","EPOCH":"2026-03-09T21:50:07.724832","MEAN_MOTION":15.30369837,"ECCENTRICITY":0.00070968,"INCLINATION":97.4465,"RA_OF_ASC_NODE":37.7626,"ARG_OF_PERICENTER":154.7045,"MEAN_ANOMALY":205.4544,"EPHEMERIS_TYPE":0,"CLASSIFICATION_TYPE":"U","NORAD_CAT_ID":64892,"ELEMENT_SET_NO":999,"REV_AT_EPOCH":6562,"BSTAR":0.00068609503,"MEAN_MOTION_DOT":0.00020121,"MEAN_MOTION_DDOT":0},{"OBJECT_NAME":"STARLINK-35981","OBJECT_ID":"2025-270L","EPOCH":"2026-03-09T23:24:53.936928","MEAN_MOTION":15.275888,"ECCENTRICITY":6.319e-5,"INCLINATION":42.9986,"RA_OF_ASC_NODE":54.2095,"ARG_OF_PERICENTER":156.9275,"MEAN_ANOMALY":203.1605,"EPHEMERIS_TYPE":0,"CLASSIFICATION_TYPE":"U","NORAD_CAT_ID":66598,"ELEMENT_SET_NO":999,"REV_AT_EPOCH":1760,"BSTAR":0.0010634199,"MEAN_MOTION_DOT":0.00029124,"MEAN_MOTION_DDOT":0}]
